{"spkid": "20436724", "covariance": {"labels": ["e", "q", "tp", "node", "peri", "i"], "elements": [{"units": null, "title": "eccentricity", "value": ".3747831630363858", "sigma": 6.03581998621204e-09, "name": "e", "label": "e"}, {"units": "au", "title": "perihelion distance", "value": "1.010714420390085", "name": "q", "sigma": 6.55314136146193e-09, "label": "q"}, {"label": "tp", "value": "2457222.110433091833", "title": "time of perihelion passage", "units": "TDB", "name": "tp", "sigma": 4.59569462611234e-06}, {"title": "longitude of the ascending node", "value": "286.2956647284961", "units": "deg", "name": "om", "sigma": 2.04959436081997e-06, "label": "node"}, {"units": "deg", "title": "argument of perihelion", "value": "8.61463509318922", "sigma": 4.57265900813056e-06, "name": "w", "label": "peri"}, {"units": "deg", "value": "4.64834622345542", "title": "inclination", "sigma": 9.42524584221951e-07, "name": "i", "label": "i"}], "data": [["3.643112290595675E-17", "-2.387844017801032E-17", "-8.727564445710273E-15", "-4.016671175284117E-15", "-5.311742245141637E-15", "-3.317470966745205E-15"], ["-2.387844017801032E-17", "4.294366170330311E-17", "2.418913428316068E-15", "6.990838338207019E-16", "1.24983582718832E-15", "3.770379574758033E-15"], ["-8.727564445710273E-15", "2.418913428316068E-15", "2.112040909647782E-11", "4.482206068483648E-12", "1.924334480626405E-11", "1.405807401117932E-12"], ["-4.016671175284117E-15", "6.990838338207019E-16", "4.482206068483648E-12", "4.200837043905012E-12", "7.784187358143291E-13", "1.542844583602553E-12"], ["-5.311742245141637E-15", "1.24983582718832E-15", "1.924334480626405E-11", "7.784187358143291E-13", "2.090921040463756E-11", "-4.785241570741651E-14"], ["-3.317470966745205E-15", "3.770379574758033E-15", "1.405807401117932E-12", "1.542844583602553E-12", "-4.785241570741651E-14", "8.883525918627623E-13"]], "epoch": "2456989.5"}, "elements": [{"label": "e", "sigma": "5.6849E-9", "name": "e", "value": ".3766387711666252", "title": "eccentricity", "units": null}, {"label": "a", "name": "a", "sigma": "1.2414E-8", "units": "au", "value": "1.620438511669103", "title": "semi-major axis"}, {"name": "q", "sigma": "6.5631E-9", "title": "perihelion distance", "value": "1.010118541882977", "units": "au", "label": "q"}, {"label": "i", "units": "deg", "value": "4.573214162509604", "title": "inclination; angle with respect to x-y ecliptic plane", "sigma": "9.3943E-7", "name": "i"}, {"label": "node", "sigma": "2.1237E-6", "name": "om", "units": "deg", "value": "285.9402485555075", "title": "longitude of the ascending node"}, {"label": "peri", "sigma": "4.5567E-6", "name": "w", "title": "argument of perihelion", "value": "8.829081689853624", "units": "deg"}, {"label": "M", "name": "ma", "sigma": "2.1262E-5", "title": "mean anomaly", "value": "100.7853480426804", "units": "deg"}, {"units": "TDB", "title": "time of perihelion passage", "value": "2460989.568150702642", "sigma": "4.2088E-5", "name": "tp", "label": "tp"}, {"label": "period", "units": "d", "value": "753.4375504154808", "title": "sidereal orbital period", "sigma": "8.6577E-6", "name": "per"}, {"title": "mean motion", "value": ".4778100053567534", "units": "deg/d", "sigma": "5.4905E-9", "name": "n", "label": "n"}, {"label": "Q", "value": "2.230758481455229", "title": "aphelion distance", "units": "au", "name": "ad", "sigma": "1.7089E-8"}], "epoch": "2461200.5"}